<?xml version="1.0" encoding="utf-8" standalone="yes"?>
<gpx version="1.1" creator="GPS Visualizer https://www.gpsvisualizer.com/" xmlns="http://www.topografix.com/GPX/1/1" xmlns:xsi="http://www.w3.org/2001/XMLSchema-instance" xsi:schemaLocation="http://www.topografix.com/GPX/1/1 http://www.topografix.com/GPX/1/1/gpx.xsd http://www.garmin.com/xmlschemas/TrackPointExtension/v2 http://www.garmin.com/xmlschemas/TrackPointExtensionv2.xsd http://www.garmin.com/xmlschemas/GpxExtensions/v3 http://www.garmin.com/xmlschemas/GpxExtensionsv3.xsd" xmlns:gpxtpx="http://www.garmin.com/xmlschemas/TrackPointExtension/v2" xmlns:gpxx="http://www.garmin.com/xmlschemas/GpxExtensions/v3">
<trk>
  <name>เขตเทศบาลน่าน</name>
  <trkseg>
    <trkpt lat="18.805786856" lon="100.785826476"></trkpt>
    <trkpt lat="18.803348426" lon="100.790175732"></trkpt>
    <trkpt lat="18.803547125" lon="100.790406219"></trkpt>
    <trkpt lat="18.803065964" lon="100.791153902"></trkpt>
    <trkpt lat="18.802762497" lon="100.79101584"></trkpt>
    <trkpt lat="18.802405957" lon="100.791835043"></trkpt>
    <trkpt lat="18.802486737" lon="100.792163249"></trkpt>
    <trkpt lat="18.801987843" lon="100.792939463"></trkpt>
    <trkpt lat="18.801651688" lon="100.792858073"></trkpt>
    <trkpt lat="18.800814266" lon="100.79409852"></trkpt>
    <trkpt lat="18.799666376" lon="100.793035668"></trkpt>
    <trkpt lat="18.79865566" lon="100.792041575"></trkpt>
    <trkpt lat="18.797649361" lon="100.791543287"></trkpt>
    <trkpt lat="18.796721292" lon="100.791162294"></trkpt>
    <trkpt lat="18.795512014" lon="100.791082564"></trkpt>
    <trkpt lat="18.793906288" lon="100.791068854"></trkpt>
    <trkpt lat="18.79014472" lon="100.791127884"></trkpt>
    <trkpt lat="18.788569273" lon="100.791007873"></trkpt>
    <trkpt lat="18.787781858" lon="100.790552513"></trkpt>
    <trkpt lat="18.786135308" lon="100.789412135"></trkpt>
    <trkpt lat="18.783471982" lon="100.786874016"></trkpt>
    <trkpt lat="18.781055458" lon="100.785031603"></trkpt>
    <trkpt lat="18.779107993" lon="100.783449618"></trkpt>
    <trkpt lat="18.776911987" lon="100.78220407"></trkpt>
    <trkpt lat="18.775781662" lon="100.781076909"></trkpt>
    <trkpt lat="18.774566672" lon="100.779251995"></trkpt>
    <trkpt lat="18.7739667" lon="100.777987453"></trkpt>
    <trkpt lat="18.772716326" lon="100.776331225"></trkpt>
    <trkpt lat="18.771583489" lon="100.775234459"></trkpt>
    <trkpt lat="18.77088844" lon="100.774785436"></trkpt>
    <trkpt lat="18.769407988" lon="100.774406181"></trkpt>
    <trkpt lat="18.768060752" lon="100.773886332"></trkpt>
    <trkpt lat="18.767467273" lon="100.773510727"></trkpt>
    <trkpt lat="18.766776082" lon="100.772127685"></trkpt>
    <trkpt lat="18.766503992" lon="100.77115767"></trkpt>
    <trkpt lat="18.766353313" lon="100.769186565"></trkpt>
    <trkpt lat="18.766041369" lon="100.768029071"></trkpt>
    <trkpt lat="18.765674794" lon="100.767138324"></trkpt>
    <trkpt lat="18.76497696" lon="100.766324619"></trkpt>
    <trkpt lat="18.764296981" lon="100.765957309"></trkpt>
    <trkpt lat="18.764283092" lon="100.765657366"></trkpt>
    <trkpt lat="18.76472602" lon="100.765169026"></trkpt>
    <trkpt lat="18.766308586" lon="100.764694827"></trkpt>
    <trkpt lat="18.767154111" lon="100.764702654"></trkpt>
    <trkpt lat="18.768208596" lon="100.765297939"></trkpt>
    <trkpt lat="18.769387479" lon="100.766155635"></trkpt>
    <trkpt lat="18.770258893" lon="100.76734062"></trkpt>
    <trkpt lat="18.770507854" lon="100.767028945"></trkpt>
    <trkpt lat="18.770742799" lon="100.76591662"></trkpt>
    <trkpt lat="18.770741334" lon="100.764896869"></trkpt>
    <trkpt lat="18.771111793" lon="100.764341948"></trkpt>
    <trkpt lat="18.77184619" lon="100.763857602"></trkpt>
    <trkpt lat="18.772258518" lon="100.76355157"></trkpt>
    <trkpt lat="18.772669933" lon="100.763658968"></trkpt>
    <trkpt lat="18.77287101" lon="100.763395168"></trkpt>
    <trkpt lat="18.773154257" lon="100.762672738"></trkpt>
    <trkpt lat="18.77409916" lon="100.762557659"></trkpt>
    <trkpt lat="18.774934211" lon="100.762517862"></trkpt>
    <trkpt lat="18.775737065" lon="100.763292667"></trkpt>
    <trkpt lat="18.776550937" lon="100.764387536"></trkpt>
    <trkpt lat="18.776896097" lon="100.764911402"></trkpt>
    <trkpt lat="18.777333871" lon="100.764803049"></trkpt>
    <trkpt lat="18.777757714" lon="100.763998695"></trkpt>
    <trkpt lat="18.777636297" lon="100.763408464"></trkpt>
    <trkpt lat="18.778077341" lon="100.762530854"></trkpt>
    <trkpt lat="18.778752097" lon="100.762799923"></trkpt>
    <trkpt lat="18.779535468" lon="100.76233466"></trkpt>
    <trkpt lat="18.779604645" lon="100.761836061"></trkpt>
    <trkpt lat="18.779452773" lon="100.76145431"></trkpt>
    <trkpt lat="18.779474243" lon="100.761055082"></trkpt>
    <trkpt lat="18.780822931" lon="100.760164157"></trkpt>
    <trkpt lat="18.781357846" lon="100.760472016"></trkpt>
    <trkpt lat="18.789463176" lon="100.756463543"></trkpt>
    <trkpt lat="18.791460001" lon="100.767798346"></trkpt>
    <trkpt lat="18.791489817" lon="100.775133477"></trkpt>
    <trkpt lat="18.785400042" lon="100.773440529"></trkpt>
    <trkpt lat="18.793261453" lon="100.779630071"></trkpt>
    <trkpt lat="18.796121496" lon="100.778951521"></trkpt>
    <trkpt lat="18.797844587" lon="100.780910779"></trkpt>
    <trkpt lat="18.79984068" lon="100.782312023"></trkpt>
    <trkpt lat="18.805786856" lon="100.785826476"></trkpt>
  </trkseg>
</trk>
</gpx>
